{
  "links" : {
    "next" : "https://api.nasa.gov/neo/rest/v1/feed?start_date=2013-02-16&end_date=2013-02-16&detailed=true&api_key=t0TVs3DtDT2H8Oy2Zy8m2eVrNsAVKAexjcZXUckd",
    "prev" : "https://api.nasa.gov/neo/rest/v1/feed?start_date=2013-02-14&end_date=2013-02-14&detailed=true&api_key=t0TVs3DtDT2H8Oy2Zy8m2eVrNsAVKAexjcZXUckd",
    "self" : "https://api.nasa.gov/neo/rest/v1/feed?start_date=2013-02-15&end_date=2013-02-15&detailed=true&api_key=t0TVs3DtDT2H8Oy2Zy8m2eVrNsAVKAexjcZXUckd"
  },
  "element_count" : 10,
  "near_earth_objects" : {
    "2013-02-15" : [ {
      "links" : {
        "self" : "https://api.nasa.gov/neo/rest/v1/neo/2137805?api_key=t0TVs3DtDT2H8Oy2Zy8m2eVrNsAVKAexjcZXUckd"
      },
      "neo_reference_id" : "2137805",
      "name" : "137805 (1999 YK5)",
      "nasa_jpl_url" : "http://ssd.jpl.nasa.gov/sbdb.cgi?sstr=2137805",
      "absolute_magnitude_h" : 16.6,
      "estimated_diameter" : {
        "kilometers" : {
          "estimated_diameter_min" : 1.2721987854,
          "estimated_diameter_max" : 2.844722965
        },
        "meters" : {
          "estimated_diameter_min" : 1272.1987853936,
          "estimated_diameter_max" : 2844.7229650327
        },
        "miles" : {
          "estimated_diameter_min" : 0.7905074315,
          "estimated_diameter_max" : 1.7676283535
        },
        "feet" : {
          "estimated_diameter_min" : 4173.8806630706,
          "estimated_diameter_max" : 9333.0808925979
        }
      },
      "is_potentially_hazardous_asteroid" : false,
      "close_approach_data" : [ {
        "close_approach_date" : "2013-02-15",
        "epoch_date_close_approach" : 1360915200000,
        "relative_velocity" : {
          "kilometers_per_second" : "20.2082180709",
          "kilometers_per_hour" : "72749.5850550834",
          "miles_per_hour" : "45203.7630026989"
        },
        "miss_distance" : {
          "astronomical" : "0.126256428",
          "lunar" : "49.1137466431",
          "kilometers" : "18887692",
          "miles" : "11736268"
        },
        "orbiting_body" : "Earth"
      } ],
      "orbital_data" : {
        "orbit_id" : "154",
        "orbit_determination_date" : "2017-04-06 09:27:52",
        "orbit_uncertainty" : "0",
        "minimum_orbit_intersection" : ".113515",
        "jupiter_tisserand_invariant" : "6.909",
        "epoch_osculation" : "2458000.5",
        "eccentricity" : ".5582690272640618",
        "semi_major_axis" : ".8293063345350434",
        "inclination" : "16.74546069046597",
        "ascending_node_longitude" : "349.5743177256604",
        "orbital_period" : "275.8486741602037",
        "perihelion_distance" : ".3663302938502401",
        "perihelion_argument" : "292.8382840671751",
        "aphelion_distance" : "1.292282375219847",
        "perihelion_time" : "2458048.149688760053",
        "mean_anomaly" : "297.8141366608244",
        "mean_motion" : "1.305063368877836",
        "equinox" : "J2000"
      }
    }, {
      "links" : {
        "self" : "https://api.nasa.gov/neo/rest/v1/neo/2358471?api_key=t0TVs3DtDT2H8Oy2Zy8m2eVrNsAVKAexjcZXUckd"
      },
      "neo_reference_id" : "2358471",
      "name" : "358471 (2007 NS4)",
      "nasa_jpl_url" : "http://ssd.jpl.nasa.gov/sbdb.cgi?sstr=2358471",
      "absolute_magnitude_h" : 19.1,
      "estimated_diameter" : {
        "kilometers" : {
          "estimated_diameter_min" : 0.4023045798,
          "estimated_diameter_max" : 0.8995803882
        },
        "meters" : {
          "estimated_diameter_min" : 402.3045798343,
          "estimated_diameter_max" : 899.5803881691
        },
        "miles" : {
          "estimated_diameter_min" : 0.2499803991,
          "estimated_diameter_max" : 0.5589731654
        },
        "feet" : {
          "estimated_diameter_min" : 1319.8969577037,
          "estimated_diameter_max" : 2951.3793207207
        }
      },
      "is_potentially_hazardous_asteroid" : true,
      "close_approach_data" : [ {
        "close_approach_date" : "2013-02-15",
        "epoch_date_close_approach" : 1360915200000,
        "relative_velocity" : {
          "kilometers_per_second" : "24.979891044",
          "kilometers_per_hour" : "89927.6077584403",
          "miles_per_hour" : "55877.5182763487"
        },
        "miss_distance" : {
          "astronomical" : "0.3344968542",
          "lunar" : "130.1192779541",
          "kilometers" : "50040016",
          "miles" : "31093426"
        },
        "orbiting_body" : "Earth"
      } ],
      "orbital_data" : {
        "orbit_id" : "30",
        "orbit_determination_date" : "2017-04-06 09:22:53",
        "orbit_uncertainty" : "0",
        "minimum_orbit_intersection" : ".0398579",
        "jupiter_tisserand_invariant" : "3.733",
        "epoch_osculation" : "2458000.5",
        "eccentricity" : ".5980822833993239",
        "semi_major_axis" : "1.874279883863024",
        "inclination" : "5.801775822978628",
        "ascending_node_longitude" : "11.21877819285917",
        "orbital_period" : "937.2384409600676",
        "perihelion_distance" : ".7533062911928071",
        "perihelion_argument" : "47.23708723304588",
        "aphelion_distance" : "2.995253476533241",
        "perihelion_time" : "2458169.286047336455",
        "mean_anomaly" : "295.168069953596",
        "mean_motion" : ".3841071644812511",
        "equinox" : "J2000"
      }
    }, {
      "links" : {
        "self" : "https://api.nasa.gov/neo/rest/v1/neo/2367943?api_key=t0TVs3DtDT2H8Oy2Zy8m2eVrNsAVKAexjcZXUckd"
      },
      "neo_reference_id" : "2367943",
      "name" : "367943 Duende (2012 DA14)",
      "nasa_jpl_url" : "http://ssd.jpl.nasa.gov/sbdb.cgi?sstr=2367943",
      "absolute_magnitude_h" : 24.0,
      "estimated_diameter" : {
        "kilometers" : {
          "estimated_diameter_min" : 0.0421264611,
          "estimated_diameter_max" : 0.0941976306
        },
        "meters" : {
          "estimated_diameter_min" : 42.1264610556,
          "estimated_diameter_max" : 94.1976305719
        },
        "miles" : {
          "estimated_diameter_min" : 0.0261761612,
          "estimated_diameter_max" : 0.0585316759
        },
        "feet" : {
          "estimated_diameter_min" : 138.2101784897,
          "estimated_diameter_max" : 309.0473542854
        }
      },
      "is_potentially_hazardous_asteroid" : false,
      "close_approach_data" : [ {
        "close_approach_date" : "2013-02-15",
        "epoch_date_close_approach" : 1360915200000,
        "relative_velocity" : {
          "kilometers_per_second" : "7.8199697372",
          "kilometers_per_hour" : "28151.8910537885",
          "miles_per_hour" : "17492.4903050609"
        },
        "miss_distance" : {
          "astronomical" : "0.0002276287",
          "lunar" : "0.088547565",
          "kilometers" : "34052.76953125",
          "miles" : "21159.41015625"
        },
        "orbiting_body" : "Earth"
      } ],
      "orbital_data" : {
        "orbit_id" : "80",
        "orbit_determination_date" : "2017-04-06 09:22:36",
        "orbit_uncertainty" : "0",
        "minimum_orbit_intersection" : ".00172365",
        "jupiter_tisserand_invariant" : "6.532",
        "epoch_osculation" : "2458000.5",
        "eccentricity" : ".08934798500351414",
        "semi_major_axis" : ".910284163483397",
        "inclination" : "11.60915288087941",
        "ascending_node_longitude" : "146.9612496093153",
        "orbital_period" : "317.2224446928078",
        "perihelion_distance" : ".8289521076955461",
        "perihelion_argument" : "195.5895845340659",
        "aphelion_distance" : ".991616219271248",
        "perihelion_time" : "2458100.272452815114",
        "mean_anomaly" : "246.7731977533194",
        "mean_motion" : "1.134850342473772",
        "equinox" : "J2000"
      }
    } ]
  }
}